CCSDS_OMM_VERS = 2.0
CREATION_DATE  = 
ORIGINATOR     = 

OBJECT_NAME    = KUIPER-00160
OBJECT_ID      = 2026-030B
CENTER_NAME    = EARTH
REF_FRAME      = TEME
TIME_SYSTEM    = UTC
MEAN_ELEMENT_THEORY = SGP/SGP4

EPOCH          = 2026-03-09T18:20:16.137888
MEAN_MOTION    = 15.35623214
ECCENTRICITY   = .0005273
INCLINATION    = 51.8805
RA_OF_ASC_NODE = 218.8175
ARG_OF_PERICENTER = 54.1950
MEAN_ANOMALY   = 305.9525

EPHEMERIS_TYPE = 0
CLASSIFICATION_TYPE = U
NORAD_CAT_ID   = 67765
ELEMENT_SET_NO = 999
REV_AT_EPOCH   = 510
BSTAR          = .10486E-2
MEAN_MOTION_DOT = .36682E-3
MEAN_MOTION_DDOT = 0

CCSDS_OMM_VERS = 2.0
CREATION_DATE  = 
ORIGINATOR     = 

OBJECT_NAME    = KUIPER-00177
OBJECT_ID      = 2026-030C
CENTER_NAME    = EARTH
REF_FRAME      = TEME
TIME_SYSTEM    = UTC
MEAN_ELEMENT_THEORY = SGP/SGP4

EPOCH          = 2026-03-09T17:59:02.995008
MEAN_MOTION    = 15.35805147
ECCENTRICITY   = .0006534
INCLINATION    = 51.8832
RA_OF_ASC_NODE = 218.7283
ARG_OF_PERICENTER = 338.9048
MEAN_ANOMALY   = 21.1668

EPHEMERIS_TYPE = 0
CLASSIFICATION_TYPE = U
NORAD_CAT_ID   = 67766
ELEMENT_SET_NO = 999
REV_AT_EPOCH   = 510
BSTAR          = .1059E-2
MEAN_MOTION_DOT = .3728E-3
MEAN_MOTION_DDOT = 0

CCSDS_OMM_VERS = 2.0
CREATION_DATE  = 
ORIGINATOR     = 

OBJECT_NAME    = KUIPER-00178
OBJECT_ID      = 2026-030D
CENTER_NAME    = EARTH
REF_FRAME      = TEME
TIME_SYSTEM    = UTC
MEAN_ELEMENT_THEORY = SGP/SGP4

EPOCH          = 2026-03-09T15:15:28.534752
MEAN_MOTION    = 15.35571325
ECCENTRICITY   = .0006451
INCLINATION    = 51.8828
RA_OF_ASC_NODE = 219.4634
ARG_OF_PERICENTER = 46.2779
MEAN_ANOMALY   = 313.8741

EPHEMERIS_TYPE = 0
CLASSIFICATION_TYPE = U
NORAD_CAT_ID   = 67767
ELEMENT_SET_NO = 999
REV_AT_EPOCH   = 508
BSTAR          = .70511E-3
MEAN_MOTION_DOT = .24464E-3
MEAN_MOTION_DDOT = 0

CCSDS_OMM_VERS = 2.0
CREATION_DATE  = 
ORIGINATOR     = 

OBJECT_NAME    = KUIPER-00180
OBJECT_ID      = 2026-030E
CENTER_NAME    = EARTH
REF_FRAME      = TEME
TIME_SYSTEM    = UTC
MEAN_ELEMENT_THEORY = SGP/SGP4

EPOCH          = 2026-03-09T20:55:45.589152
MEAN_MOTION    = 15.31833915
ECCENTRICITY   = .0016787
INCLINATION    = 51.8828
RA_OF_ASC_NODE = 218.7769
ARG_OF_PERICENTER = 64.4242
MEAN_ANOMALY   = 295.8475

EPHEMERIS_TYPE = 0
CLASSIFICATION_TYPE = U
NORAD_CAT_ID   = 67768
ELEMENT_SET_NO = 999
REV_AT_EPOCH   = 511
BSTAR          = .14994E-1
MEAN_MOTION_DOT = .501298E-2
MEAN_MOTION_DDOT = 0

CCSDS_OMM_VERS = 2.0
CREATION_DATE  = 
ORIGINATOR     = 

OBJECT_NAME    = KUIPER-00197
OBJECT_ID      = 2026-030F
CENTER_NAME    = EARTH
REF_FRAME      = TEME
TIME_SYSTEM    = UTC
MEAN_ELEMENT_THEORY = SGP/SGP4

EPOCH          = 2026-03-09T10:14:11.772960
MEAN_MOTION    = 15.36379862
ECCENTRICITY   = .0001601
INCLINATION    = 51.8831
RA_OF_ASC_NODE = 220.3144
ARG_OF_PERICENTER = 67.2198
MEAN_ANOMALY   = 292.8958

EPHEMERIS_TYPE = 0
CLASSIFICATION_TYPE = U
NORAD_CAT_ID   = 67769
ELEMENT_SET_NO = 999
REV_AT_EPOCH   = 505
BSTAR          = .13526E-2
MEAN_MOTION_DOT = .48662E-3
MEAN_MOTION_DDOT = 0

CCSDS_OMM_VERS = 2.0
CREATION_DATE  = 
ORIGINATOR     = 

OBJECT_NAME    = KUIPER-00198
OBJECT_ID      = 2026-030G
CENTER_NAME    = EARTH
REF_FRAME      = TEME
TIME_SYSTEM    = UTC
MEAN_ELEMENT_THEORY = SGP/SGP4

EPOCH          = 2026-03-09T15:03:31.007808
MEAN_MOTION    = 15.36089150
ECCENTRICITY   = .0003583
INCLINATION    = 51.8806
RA_OF_ASC_NODE = 219.4038
ARG_OF_PERICENTER = 35.8948
MEAN_ANOMALY   = 324.2279

EPHEMERIS_TYPE = 0
CLASSIFICATION_TYPE = U
NORAD_CAT_ID   = 67770
ELEMENT_SET_NO = 999
REV_AT_EPOCH   = 508
BSTAR          = .95567E-3
MEAN_MOTION_DOT = .33885E-3
MEAN_MOTION_DDOT = 0

CCSDS_OMM_VERS = 2.0
CREATION_DATE  = 
ORIGINATOR     = 

OBJECT_NAME    = KUIPER-00199
OBJECT_ID      = 2026-030H
CENTER_NAME    = EARTH
REF_FRAME      = TEME
TIME_SYSTEM    = UTC
MEAN_ELEMENT_THEORY = SGP/SGP4

EPOCH          = 2026-03-09T20:22:54.746400
MEAN_MOTION    = 15.34402964
ECCENTRICITY   = .0010842
INCLINATION    = 51.8811
RA_OF_ASC_NODE = 218.6320
ARG_OF_PERICENTER = 59.6620
MEAN_ANOMALY   = 300.5437

EPHEMERIS_TYPE = 0
CLASSIFICATION_TYPE = U
NORAD_CAT_ID   = 67771
ELEMENT_SET_NO = 999
REV_AT_EPOCH   = 511
BSTAR          = .1034E-2
MEAN_MOTION_DOT = .34812E-3
MEAN_MOTION_DDOT = 0

CCSDS_OMM_VERS = 2.0
CREATION_DATE  = 
ORIGINATOR     = 

OBJECT_NAME    = KUIPER-00200
OBJECT_ID      = 2026-030J
CENTER_NAME    = EARTH
REF_FRAME      = TEME
TIME_SYSTEM    = UTC
MEAN_ELEMENT_THEORY = SGP/SGP4

EPOCH          = 2026-03-09T16:14:07.210176
MEAN_MOTION    = 15.37115765
ECCENTRICITY   = .0001049
INCLINATION    = 51.8819
RA_OF_ASC_NODE = 218.9881
ARG_OF_PERICENTER = 264.9914
MEAN_ANOMALY   = 95.0953

EPHEMERIS_TYPE = 0
CLASSIFICATION_TYPE = U
NORAD_CAT_ID   = 67772
ELEMENT_SET_NO = 999
REV_AT_EPOCH   = 509
BSTAR          = .70619E-3
MEAN_MOTION_DOT = .25755E-3
MEAN_MOTION_DDOT = 0

CCSDS_OMM_VERS = 2.0
CREATION_DATE  = 
ORIGINATOR     = 

OBJECT_NAME    = KUIPER-00203
OBJECT_ID      = 2026-030K
CENTER_NAME    = EARTH
REF_FRAME      = TEME
TIME_SYSTEM    = UTC
MEAN_ELEMENT_THEORY = SGP/SGP4

EPOCH          = 2026-03-09T20:00:00.999360
MEAN_MOTION    = 15.12749958
ECCENTRICITY   = .0011614
INCLINATION    = 51.8860
RA_OF_ASC_NODE = 219.4456
ARG_OF_PERICENTER = 62.5891
MEAN_ANOMALY   = 166.2530

EPHEMERIS_TYPE = 0
CLASSIFICATION_TYPE = U
NORAD_CAT_ID   = 67773
ELEMENT_SET_NO = 999
REV_AT_EPOCH   = 367
BSTAR          = -.11897E+0
MEAN_MOTION_DOT = -.1917252E-1
MEAN_MOTION_DDOT = 0

CCSDS_OMM_VERS = 2.0
CREATION_DATE  = 
ORIGINATOR     = 

OBJECT_NAME    = KUIPER-00205
OBJECT_ID      = 2026-030L
CENTER_NAME    = EARTH
REF_FRAME      = TEME
TIME_SYSTEM    = UTC
MEAN_ELEMENT_THEORY = SGP/SGP4

EPOCH          = 2026-03-09T16:29:52.162656
MEAN_MOTION    = 15.36438333
ECCENTRICITY   = .0003255
INCLINATION    = 51.8813
RA_OF_ASC_NODE = 219.0576
ARG_OF_PERICENTER = 20.5074
MEAN_ANOMALY   = 339.6043

EPHEMERIS_TYPE = 0
CLASSIFICATION_TYPE = U
NORAD_CAT_ID   = 67774
ELEMENT_SET_NO = 999
REV_AT_EPOCH   = 509
BSTAR          = .70745E-3
MEAN_MOTION_DOT = .25239E-3
MEAN_MOTION_DDOT = 0

CCSDS_OMM_VERS = 2.0
CREATION_DATE  = 
ORIGINATOR     = 

OBJECT_NAME    = KUIPER-00208
OBJECT_ID      = 2026-030M
CENTER_NAME    = EARTH
REF_FRAME      = TEME
TIME_SYSTEM    = UTC
MEAN_ELEMENT_THEORY = SGP/SGP4

EPOCH          = 2026-03-09T16:08:08.023776
MEAN_MOTION    = 15.32208734
ECCENTRICITY   = .0015525
INCLINATION    = 51.8846
RA_OF_ASC_NODE = 219.6993
ARG_OF_PERICENTER = 57.3146
MEAN_ANOMALY   = 302.9333

EPHEMERIS_TYPE = 0
CLASSIFICATION_TYPE = U
NORAD_CAT_ID   = 67775
ELEMENT_SET_NO = 999
REV_AT_EPOCH   = 508
BSTAR          = .13883E-2
MEAN_MOTION_DOT = .43852E-3
MEAN_MOTION_DDOT = 0

CCSDS_OMM_VERS = 2.0
CREATION_DATE  = 
ORIGINATOR     = 

OBJECT_NAME    = KUIPER-00209
OBJECT_ID      = 2026-030N
CENTER_NAME    = EARTH
REF_FRAME      = TEME
TIME_SYSTEM    = UTC
MEAN_ELEMENT_THEORY = SGP/SGP4

EPOCH          = 2026-03-09T14:49:43.575744
MEAN_MOTION    = 15.30161950
ECCENTRICITY   = .0012191
INCLINATION    = 51.8838
RA_OF_ASC_NODE = 220.0775
ARG_OF_PERICENTER = 59.1967
MEAN_ANOMALY   = 301.0215

EPHEMERIS_TYPE = 0
CLASSIFICATION_TYPE = U
NORAD_CAT_ID   = 67776
ELEMENT_SET_NO = 999
REV_AT_EPOCH   = 507
BSTAR          = .11963E-2
MEAN_MOTION_DOT = .35298E-3
MEAN_MOTION_DDOT = 0

